STARLINK-2258           
1 47860U 21021A   24022.72783310  .00000130  00000+0  27619-4 0  9994
2 47860  53.0552 169.5306 0001271  85.0421 275.0713 15.06401950158468
STARLINK-2280           
1 47861U 21021B   24022.67945081  .00002011  00000+0  15382-3 0  9997
2 47861  53.0538 154.7528 0001377  88.3303 271.7844 15.06409203158666
STARLINK-2291           
1 47862U 21021C   24022.32790544  .00000787  00000+0  71694-4 0  9999
2 47862  53.0527 151.3310 0001285  99.5110 260.6024 15.06403049158686
STARLINK-2293           
1 47863U 21021D   24022.35278608 -.00003230  00000+0 -19797-3 0  9998
2 47863  53.0532 161.2182 0001115 103.9120 256.1993 15.06415862158549
STARLINK-2304           
1 47864U 21021E   24022.66335887 -.00002557  00000+0 -15283-3 0  9993
2 47864  53.0535 149.8744 0001150  80.9600 279.1519 15.06394546158729
STARLINK-2310           
1 47865U 21021F   24021.66256643 -.00002341  00000+0 -13831-3 0  9993
2 47865  53.0564 164.2975 0001835 150.7221 209.3871 15.06404772159038
STARLINK-2320           
1 47866U 21021G   24022.66239498 -.00003750  00000+0 -23276-3 0  9993
2 47866  53.0539 159.8288 0001071  86.9530 273.1581 15.06433329158602
STARLINK-2321           
1 47867U 21021H   24022.45691121  .00000559  00000+0  56409-4 0  9993
2 47867  53.0534 150.7528 0001279  86.8916 273.2219 15.06409871158718
STARLINK-2323           
1 47868U 21021J   24022.45046476  .00010322  00000+0  71063-3 0  9992
2 47868  53.0536 100.7774 0001370  86.5766 273.5379 15.06411433159416
STARLINK-2324           
1 47869U 21021K   24022.58591601  .00003615  00000+0  26140-3 0  9995
2 47869  53.0518 150.1718 0001202 100.5855 259.5270 15.06411405158731
STARLINK-2326           
1 47870U 21021L   24022.40484887  .00001470  00000+0  11756-3 0  9999
2 47870  53.0536 175.9875 0001553  76.7430 283.3732 15.06411228158342
STARLINK-2327           
1 47871U 21021M   24022.58223444  .00001795  00000+0  13933-3 0  9998
2 47871  53.0533 150.1918 0001260  94.8450 265.2683 15.06404959158731
STARLINK-2329           
1 47873U 21021P   24021.76764649  .00000851  00000+0  76013-4 0  9997
2 47873  53.0543 153.8457 0001422  79.7341 280.3809 15.06397277159073
