[{"OBJECT_NAME":"STARLINK-2258","OBJECT_ID":"2021-021A","EPOCH":"2024-01-22T17:28:04.779840","MEAN_MOTION":15.0640195,"ECCENTRICITY":0.0001271,"INCLINATION":53.0552,"RA_OF_ASC_NODE":169.5306,"ARG_OF_PERICENTER":85.0421,"MEAN_ANOMALY":275.0713,"EPHEMERIS_TYPE":0,"CLASSIFICATION_TYPE":"U","NORAD_CAT_ID":47860,"ELEMENT_SET_NO":999,"REV_AT_EPOCH":15846,"BSTAR":2.7619e-5,"MEAN_MOTION_DOT":1.3e-6,"MEAN_MOTION_DDOT":0},{"OBJECT_NAME":"STARLINK-2280","OBJECT_ID":"2021-021B","EPOCH":"2024-01-22T16:18:24.549984","MEAN_MOTION":15.06409203,"ECCENTRICITY":0.0001377,"INCLINATION":53.0538,"RA_OF_ASC_NODE":154.7528,"ARG_OF_PERICENTER":88.3303,"MEAN_ANOMALY":271.7844,"EPHEMERIS_TYPE":0,"CLASSIFICATION_TYPE":"U","NORAD_CAT_ID":47861,"ELEMENT_SET_NO":999,"REV_AT_EPOCH":15866,"BSTAR":0.00015382,"MEAN_MOTION_DOT":2.011e-5,"MEAN_MOTION_DDOT":0},{"OBJECT_NAME":"STARLINK-2291","OBJECT_ID":"2021-021C","EPOCH":"2024-01-22T07:52:11.030016","MEAN_MOTION":15.06403049,"ECCENTRICITY":0.0001285,"INCLINATION":53.0527,"RA_OF_ASC_NODE":151.331,"ARG_OF_PERICENTER":99.511,"MEAN_ANOMALY":260.6024,"EPHEMERIS_TYPE":0,"CLASSIFICATION_TYPE":"U","NORAD_CAT_ID":47862,"ELEMENT_SET_NO":999,"REV_AT_EPOCH":15868,"BSTAR":7.1694e-5,"MEAN_MOTION_DOT":7.87e-6,"MEAN_MOTION_DDOT":0},{"OBJECT_NAME":"STARLINK-2293","OBJECT_ID":"2021-021D","EPOCH":"2024-01-22T08:28:00.717312","MEAN_MOTION":15.06415862,"ECCENTRICITY":0.0001115,"INCLINATION":53.0532,"RA_OF_ASC_NODE":161.2182,"ARG_OF_PERICENTER":103.912,"MEAN_ANOMALY":256.1993,"EPHEMERIS_TYPE":0,"CLASSIFICATION_TYPE":"U","NORAD_CAT_ID":47863,"ELEMENT_SET_NO":999,"REV_AT_EPOCH":15854,"BSTAR":-0.00019797,"MEAN_MOTION_DOT":-3.23e-5,"MEAN_MOTION_DDOT":0},{"OBJECT_NAME":"STARLINK-2304","OBJECT_ID":"2021-021E","EPOCH":"2024-01-22T15:55:14.206368","MEAN_MOTION":15.06394546,"ECCENTRICITY":0.000115,"INCLINATION":53.0535,"RA_OF_ASC_NODE":149.8744,"ARG_OF_PERICENTER":80.96,"MEAN_ANOMALY":279.1519,"EPHEMERIS_TYPE":0,"CLASSIFICATION_TYPE":"U","NORAD_CAT_ID":47864,"ELEMENT_SET_NO":999,"REV_AT_EPOCH":15872,"BSTAR":-0.00015283,"MEAN_MOTION_DOT":-2.557e-5,"MEAN_MOTION_DDOT":0},{"OBJECT_NAME":"STARLINK-2310","OBJECT_ID":"2021-021F","EPOCH":"2024-01-21T15:54:05.739552","MEAN_MOTION":15.06404772,"ECCENTRICITY":0.0001835,"INCLINATION":53.0564,"RA_OF_ASC_NODE":164.2975,"ARG_OF_PERICENTER":150.7221,"MEAN_ANOMALY":209.3871,"EPHEMERIS_TYPE":0,"CLASSIFICATION_TYPE":"U","NORAD_CAT_ID":47865,"ELEMENT_SET_NO":999,"REV_AT_EPOCH":15903,"BSTAR":-0.00013831,"MEAN_MOTION_DOT":-2.341e-5,"MEAN_MOTION_DDOT":0},{"OBJECT_NAME":"STARLINK-2320","OBJECT_ID":"2021-021G","EPOCH":"2024-01-22T15:53:50.926272","MEAN_MOTION":15.06433329,"ECCENTRICITY":0.0001071,"INCLINATION":53.0539,"RA_OF_ASC_NODE":159.8288,"ARG_OF_PERICENTER":86.953,"MEAN_ANOMALY":273.1581,"EPHEMERIS_TYPE":0,"CLASSIFICATION_TYPE":"U","NORAD_CAT_ID":47866,"ELEMENT_SET_NO":999,"REV_AT_EPOCH":15860,"BSTAR":-0.00023276,"MEAN_MOTION_DOT":-3.75e-5,"MEAN_MOTION_DDOT":0},{"OBJECT_NAME":"STARLINK-2321","OBJECT_ID":"2021-021H","EPOCH":"2024-01-22T10:57:57.128544","MEAN_MOTION":15.06409871,"ECCENTRICITY":0.0001279,"INCLINATION":53.0534,"RA_OF_ASC_NODE":150.7528,"ARG_OF_PERICENTER":86.8916,"MEAN_ANOMALY":273.2219,"EPHEMERIS_TYPE":0,"CLASSIFICATION_TYPE":"U","NORAD_CAT_ID":47867,"ELEMENT_SET_NO":999,"REV_AT_EPOCH":15871,"BSTAR":5.6409e-5,"MEAN_MOTION_DOT":5.59e-6,"MEAN_MOTION_DDOT":0},{"OBJECT_NAME":"STARLINK-2323","OBJECT_ID":"2021-021J","EPOCH":"2024-01-22T10:48:40.155264","MEAN_MOTION":15.06411433,"ECCENTRICITY":0.000137,"INCLINATION":53.0536,"RA_OF_ASC_NODE":100.7774,"ARG_OF_PERICENTER":86.5766,"MEAN_ANOMALY":273.5379,"EPHEMERIS_TYPE":0,"CLASSIFICATION_TYPE":"U","NORAD_CAT_ID":47868,"ELEMENT_SET_NO":999,"REV_AT_EPOCH":15941,"BSTAR":0.00071063,"MEAN_MOTION_DOT":0.00010322,"MEAN_MOTION_DDOT":0},{"OBJECT_NAME":"STARLINK-2324","OBJECT_ID":"2021-021K","EPOCH":"2024-01-22T14:03:43.143264","MEAN_MOTION":15.06411405,"ECCENTRICITY":0.0001202,"INCLINATION":53.0518,"RA_OF_ASC_NODE":150.1718,"ARG_OF_PERICENTER":100.5855,"MEAN_ANOMALY":259.527,"EPHEMERIS_TYPE":0,"CLASSIFICATION_TYPE":"U","NORAD_CAT_ID":47869,"ELEMENT_SET_NO":999,"REV_AT_EPOCH":15873,"BSTAR":0.0002614,"MEAN_MOTION_DOT":3.615e-5,"MEAN_MOTION_DDOT":0},{"OBJECT_NAME":"STARLINK-2326","OBJECT_ID":"2021-021L","EPOCH":"2024-01-22T09:42:58.942368","MEAN_MOTION":15.06411228,"ECCENTRICITY":0.0001553,"INCLINATION":53.0536,"RA_OF_ASC_NODE":175.9875,"ARG_OF_PERICENTER":76.743,"MEAN_ANOMALY":283.3732,"EPHEMERIS_TYPE":0,"CLASSIFICATION_TYPE":"U","NORAD_CAT_ID":47870,"ELEMENT_SET_NO":999,"REV_AT_EPOCH":15834,"BSTAR":0.00011756,"MEAN_MOTION_DOT":1.47e-5,"MEAN_MOTION_DDOT":0},{"OBJECT_NAME":"STARLINK-2327","OBJECT_ID":"2021-021M","EPOCH":"2024-01-22T13:58:25.055616","MEAN_MOTION":15.06404959,"ECCENTRICITY":0.000126,"INCLINATION":53.0533,"RA_OF_ASC_NODE":150.1918,"ARG_OF_PERICENTER":94.845,"MEAN_ANOMALY":265.2683,"EPHEMERIS_TYPE":0,"CLASSIFICATION_TYPE":"U","NORAD_CAT_ID":47871,"ELEMENT_SET_NO":999,"REV_AT_EPOCH":15873,"BSTAR":0.00013933,"MEAN_MOTION_DOT":1.795e-5,"MEAN_MOTION_DDOT":0},{"OBJECT_NAME":"STARLINK-2329","OBJECT_ID":"2021-021P","EPOCH":"2024-01-21T18:25:24.656736","MEAN_MOTION":15.06397277,"ECCENTRICITY":0.0001422,"INCLINATION":53.0543,"RA_OF_ASC_NODE":153.8457,"ARG_OF_PERICENTER":79.7341,"MEAN_ANOMALY":280.3809,"EPHEMERIS_TYPE":0,"CLASSIFICATION_TYPE":"U","NORAD_CAT_ID":47873,"ELEMENT_SET_NO":999,"REV_AT_EPOCH":15907,"BSTAR":7.6013e-5,"MEAN_MOTION_DOT":8.51e-6,"MEAN_MOTION_DDOT":0}]
